{
  "links" : {
    "next" : "https://api.nasa.gov/neo/rest/v1/feed?start_date=2010-11-16&end_date=2010-11-16&detailed=true&api_key=t0TVs3DtDT2H8Oy2Zy8m2eVrNsAVKAexjcZXUckd",
    "prev" : "https://api.nasa.gov/neo/rest/v1/feed?start_date=2010-11-14&end_date=2010-11-14&detailed=true&api_key=t0TVs3DtDT2H8Oy2Zy8m2eVrNsAVKAexjcZXUckd",
    "self" : "https://api.nasa.gov/neo/rest/v1/feed?start_date=2010-11-15&end_date=2010-11-15&detailed=true&api_key=t0TVs3DtDT2H8Oy2Zy8m2eVrNsAVKAexjcZXUckd"
  },
  "element_count" : 11,
  "near_earth_objects" : {
    "2010-11-15" : [ {
      "links" : {
        "self" : "https://api.nasa.gov/neo/rest/v1/neo/3550041?api_key=t0TVs3DtDT2H8Oy2Zy8m2eVrNsAVKAexjcZXUckd"
      },
      "neo_reference_id" : "3550041",
      "name" : "(2010 UX6)",
      "nasa_jpl_url" : "http://ssd.jpl.nasa.gov/sbdb.cgi?sstr=3550041",
      "absolute_magnitude_h" : 23.1,
      "estimated_diameter" : {
        "kilometers" : {
          "estimated_diameter_min" : 0.063760979,
          "estimated_diameter_max" : 0.1425738833
        },
        "meters" : {
          "estimated_diameter_min" : 63.7609789875,
          "estimated_diameter_max" : 142.5738833281
        },
        "miles" : {
          "estimated_diameter_min" : 0.0396192233,
          "estimated_diameter_max" : 0.0885912765
        },
        "feet" : {
          "estimated_diameter_min" : 209.1895703015,
          "estimated_diameter_max" : 467.7620993781
        }
      },
      "is_potentially_hazardous_asteroid" : false,
      "close_approach_data" : [ {
        "close_approach_date" : "2010-11-15",
        "epoch_date_close_approach" : 1289808000000,
        "relative_velocity" : {
          "kilometers_per_second" : "8.016112897",
          "kilometers_per_hour" : "28858.0064292766",
          "miles_per_hour" : "17931.2429393469"
        },
        "miss_distance" : {
          "astronomical" : "0.0317978509",
          "lunar" : "12.3693647385",
          "kilometers" : "4756891",
          "miles" : "2955795"
        },
        "orbiting_body" : "Earth"
      } ],
      "orbital_data" : {
        "orbit_id" : "37",
        "orbit_determination_date" : "2017-04-06 08:56:10",
        "orbit_uncertainty" : "5",
        "minimum_orbit_intersection" : ".0192204",
        "jupiter_tisserand_invariant" : "3.191",
        "epoch_osculation" : "2458000.5",
        "eccentricity" : ".5992360441491127",
        "semi_major_axis" : "2.499002658538954",
        "inclination" : "1.339565433330834",
        "ascending_node_longitude" : "220.2639870799144",
        "orbital_period" : "1442.9407686729",
        "perihelion_distance" : "1.001510191117955",
        "perihelion_argument" : "208.8284517435526",
        "aphelion_distance" : "3.996495125959952",
        "perihelion_time" : "2458416.741755885856",
        "mean_anomaly" : "256.1516401974523",
        "mean_motion" : ".2494904904039123",
        "equinox" : "J2000"
      }
    }, {
      "links" : {
        "self" : "https://api.nasa.gov/neo/rest/v1/neo/3550467?api_key=t0TVs3DtDT2H8Oy2Zy8m2eVrNsAVKAexjcZXUckd"
      },
      "neo_reference_id" : "3550467",
      "name" : "(2010 VA12)",
      "nasa_jpl_url" : "http://ssd.jpl.nasa.gov/sbdb.cgi?sstr=3550467",
      "absolute_magnitude_h" : 19.5,
      "estimated_diameter" : {
        "kilometers" : {
          "estimated_diameter_min" : 0.3346223745,
          "estimated_diameter_max" : 0.7482383761
        },
        "meters" : {
          "estimated_diameter_min" : 334.6223744549,
          "estimated_diameter_max" : 748.2383760735
        },
        "miles" : {
          "estimated_diameter_min" : 0.2079246394,
          "estimated_diameter_max" : 0.464933628
        },
        "feet" : {
          "estimated_diameter_min" : 1097.8424710066,
          "estimated_diameter_max" : 2454.8503937571
        }
      },
      "is_potentially_hazardous_asteroid" : false,
      "close_approach_data" : [ {
        "close_approach_date" : "2010-11-15",
        "epoch_date_close_approach" : 1289808000000,
        "relative_velocity" : {
          "kilometers_per_second" : "23.5963174429",
          "kilometers_per_hour" : "84946.742794422",
          "miles_per_hour" : "52782.6024880118"
        },
        "miss_distance" : {
          "astronomical" : "0.4464871727",
          "lunar" : "173.6835021973",
          "kilometers" : "66793528",
          "miles" : "41503576"
        },
        "orbiting_body" : "Earth"
      } ],
      "orbital_data" : {
        "orbit_id" : "15",
        "orbit_determination_date" : "2017-04-06 08:55:54",
        "orbit_uncertainty" : "7",
        "minimum_orbit_intersection" : ".0526636",
        "jupiter_tisserand_invariant" : "4.523",
        "epoch_osculation" : "2458000.5",
        "eccentricity" : ".8433518739290244",
        "semi_major_axis" : "1.268821725721033",
        "inclination" : "37.37763818230067",
        "ascending_node_longitude" : "44.66991396117775",
        "orbital_period" : "522.0346574378154",
        "perihelion_distance" : ".1987585456523412",
        "perihelion_argument" : "132.9147102827879",
        "aphelion_distance" : "2.338884905789725",
        "perihelion_time" : "2458182.567965629698",
        "mean_anomaly" : "234.4442218675897",
        "mean_motion" : ".689609386792261",
        "equinox" : "J2000"
      }
    }, {
      "links" : {
        "self" : "https://api.nasa.gov/neo/rest/v1/neo/3551475?api_key=t0TVs3DtDT2H8Oy2Zy8m2eVrNsAVKAexjcZXUckd"
      },
      "neo_reference_id" : "3551475",
      "name" : "(2010 VK139)",
      "nasa_jpl_url" : "http://ssd.jpl.nasa.gov/sbdb.cgi?sstr=3551475",
      "absolute_magnitude_h" : 23.7,
      "estimated_diameter" : {
        "kilometers" : {
          "estimated_diameter_min" : 0.0483676488,
          "estimated_diameter_max" : 0.1081533507
        },
        "meters" : {
          "estimated_diameter_min" : 48.3676488219,
          "estimated_diameter_max" : 108.1533506775
        },
        "miles" : {
          "estimated_diameter_min" : 0.0300542543,
          "estimated_diameter_max" : 0.0672033557
        },
        "feet" : {
          "estimated_diameter_min" : 158.6865169607,
          "estimated_diameter_max" : 354.8338390368
        }
      },
      "is_potentially_hazardous_asteroid" : false,
      "close_approach_data" : [ {
        "close_approach_date" : "2010-11-15",
        "epoch_date_close_approach" : 1289808000000,
        "relative_velocity" : {
          "kilometers_per_second" : "13.861983663",
          "kilometers_per_hour" : "49903.1411867989",
          "miles_per_hour" : "31007.871255764"
        },
        "miss_distance" : {
          "astronomical" : "0.0073054385",
          "lunar" : "2.8418157101",
          "kilometers" : "1092878.125",
          "miles" : "679082.9375"
        },
        "orbiting_body" : "Earth"
      } ],
      "orbital_data" : {
        "orbit_id" : "12",
        "orbit_determination_date" : "2017-04-06 08:55:44",
        "orbit_uncertainty" : "5",
        "minimum_orbit_intersection" : ".00748771",
        "jupiter_tisserand_invariant" : "7.340",
        "epoch_osculation" : "2458000.5",
        "eccentricity" : ".2834334494375809",
        "semi_major_axis" : ".7791518107835675",
        "inclination" : "26.94562708716121",
        "ascending_node_longitude" : "233.3716210769146",
        "orbital_period" : "251.2068937464952",
        "perihelion_distance" : ".5583141254176436",
        "perihelion_argument" : "8.286453516106201",
        "aphelion_distance" : ".9999894961494915",
        "perihelion_time" : "2457912.588699578713",
        "mean_anomaly" : "125.9840750373712",
        "mean_motion" : "1.43308169067722",
        "equinox" : "J2000"
      }
    } ]
  }
}